SAR-LUPE 2              
1 31797U 07030A   26146.56833644  .00033832  00000+0  67498-3 0  9990
2 31797  98.1017 248.3881 0012625 180.5661 179.5575 15.46706059 53596
SAPPHIRE                
1 39088U 13009C   26146.55019744  .00000102  00000+0  50786-4 0  9997
2 39088  98.4257 326.5207 0010336 318.3007  41.7390 14.35233781693475
PRAETORIAN SDA_602      
1 65565U 25203A   26146.41353520  .00000092  00000+0  71917-4 0  9990
2 65565  81.3047  30.9384 0004943 251.5229 108.5391 13.84340781 35683
PRAETORIAN SDA_603      
1 65566U 25203B   26146.43333867  .00000137  00000+0  11265-3 0  9994
2 65566  81.3053  30.8211 0008514 251.5370 108.4861 13.83902011 35695
PRAETORIAN SDA_604      
1 65567U 25203C   26146.36722898  .00000118  00000+0  97521-4 0  9992
2 65567  81.3070  31.2610 0004561 261.1364  98.9275 13.83043773 35661
PRAETORIAN SDA_605      
1 65568U 25203D   26146.19401151  .00000099  00000+0  79067-4 0  9993
2 65568  81.3035  31.1056 0007215 248.2338 111.8051 13.83431639 35650
PRAETORIAN SDA_606      
1 65569U 25203E   26146.61008074  .00000098  00000+0  78168-4 0  9998
2 65569  81.3071  30.9333 0004846 247.0839 112.9806 13.83404514 35704
PRAETORIAN SDA_607      
1 65570U 25203F   26146.19809954  .00000191  00000+0  16054-3 0  9998
2 65570  81.3054  31.0106 0007816 253.0640 106.9660 13.84282150 35661
PRAETORIAN SDA_608      
1 65571U 25203G   26146.38498853  .00000094  00000+0  73965-4 0  9999
2 65571  81.3023  30.9913 0005040 259.2335 100.8254 13.83813869 35677
PRAETORIAN SDA_609      
1 65572U 25203H   26146.61380906  .00000369  00000+0  31991-3 0  9992
2 65572  81.3066  30.7683 0005888 249.5723 110.4801 13.84281587 35717
PRAETORIAN SDA_610      
1 65573U 25203J   26146.07609271 -.00000980  00000+0 -89571-3 0  9990
2 65573  81.3044  31.2314 0005494 260.2823  99.7713 13.83847523 35634
PRAETORIAN SDA_611      
1 65574U 25203K   26146.42985378  .00000202  00000+0  17344-3 0  9999
2 65574  81.3033  31.0559 0004636 263.3247  96.7382 13.83306261 35675
PRAETORIAN SDA_612      
1 65575U 25203L   26146.37436805  .00000229  00000+0  19171-3 0  9999
2 65575  81.3046  30.7476 0008267 251.2830 108.7430 13.85036196 35691
PRAETORIAN SDA_613      
1 65576U 25203M   26146.42804568  .00000104  00000+0  85090-4 0  9997
2 65576  81.3018  31.0380 0004704 251.2218 108.8428 13.82762896 35677
PRAETORIAN SDA_614      
1 65577U 25203N   26146.43170342  .00000097  00000+0  76009-4 0  9996
2 65577  81.3030  30.7668 0006161 249.2780 110.7717 13.84775776 35707
PRAETORIAN SDA_615      
1 65578U 25203P   26146.62002752  .00000197  00000+0  16581-3 0  9996
2 65578  81.3038  30.5425 0008040 248.9371 111.0926 13.84433554 35728
PRAETORIAN SDA_616      
1 65579U 25203Q   26146.42841212  .00000160  00000+0  13479-3 0  9990
2 65579  81.3081  31.1884 0004555 261.8928  98.1711 13.83264760 35673
PRAETORIAN SDA_617      
1 65580U 25203R   26146.37583243  .00000099  00000+0  79313-4 0  9994
2 65580  81.3053  31.0701 0006431 249.9212 110.1252 13.83148215 35670
PRAETORIAN SDA_618      
1 65581U 25203S   26146.37326136  .00000128  00000+0  10356-3 0  9995
2 65581  81.3037  30.7100 0008772 251.4649 108.5555 13.84773087 35695
PRAETORIAN SDA_619      
1 65582U 25203T   26146.61261955  .00000268  00000+0  23124-3 0  9992
2 65582  81.3062  30.7504 0007030 248.3602 111.6806 13.83942161 36349
PRAETORIAN SDA_620      
1 65583U 25203U   26146.20337157  .00000196  00000+0  16723-3 0  9993
2 65583  81.3046  31.1462 0006666 246.3471 113.6986 13.83616319 35653
PRAETORIAN SDA_621      
1 65584U 25203V   26146.61388963  .00000118  00000+0  96191-4 0  9992
2 65584  81.3037  30.6928 0006442 242.8313 117.2188 13.83798136 35712
PRAETORIAN SDA_601      
1 65585U 25203W   26146.43044221  .00000228  00000+0  19720-3 0  9993
2 65585  81.3062  31.1352 0004514 264.7897  95.2744 13.83269454 35670
